NORAD_CAT_ID,OBJECT_NAME,OBJECT_TYPE,EPOCH,MEAN_MOTION,ECCENTRICITY,INCLINATION,RA_OF_ASC_NODE,ARG_OF_PERICENTER,MEAN_ANOMALY,BSTAR,MEAN_MOTION_DOT,MEAN_MOTION_DDOT,TLE_LINE0,TLE_LINE1,TLE_LINE2,SEMIMAJOR_AXIS,PERIOD,APOGEE,PERIGEE,DECAYED
55302.0,STARLINK-5321,PAYLOAD,2024-05-29 14:20:13,14.98329182,0.0003183,69.9997,220.9543,264.7405,95.3391,-1.8765e-05,-3.17e-06,0.0,0 STARLINK-5321,1 55302U 23010AK  24150.59737632 -.00000317  00000-0 -18765-4 0  9999,2 55302  69.9997 220.9543 0003183 264.7405  95.3391 14.98329182 76048,6950.195,96.107,574.273,569.848,0.0
55302.0,STARLINK-5321,PAYLOAD,2024-05-30 12:46:05,14.98333022,0.0003245,69.9995,218.5976,266.4137,93.6651,-8.9191e-06,-1.99e-06,0.0,0 STARLINK-5321,1 55302U 23010AK  24151.53201247 -.00000199  00000-0 -89191-5 0  9992,2 55302  69.9995 218.5976 0003245 266.4137  93.6651 14.98333022 75877,6950.184,96.107,574.304,569.793,0.0
55302.0,STARLINK-5321,PAYLOAD,2024-05-30 14:22:13,14.98333503,0.0003246,69.9995,218.4294,266.4749,93.6039,-3.7274e-06,-1.38e-06,0.0,0 STARLINK-5321,1 55302U 23010AK  24151.59877188 -.00000138  00000-0 -37274-5 0  9999,2 55302  69.9995 218.4294 0003246 266.4749  93.6039 14.98333503 76199,6950.182,96.107,574.303,569.791,0.0
55302.0,STARLINK-5321,PAYLOAD,2024-05-31 12:48:06,14.98331928,0.0003192,69.9994,216.0721,268.0293,92.05,4.3522e-05,4.26e-06,0.0,0 STARLINK-5321,1 55302U 23010AK  24152.53341063  .00000426  00000-0  43522-4 0  9992,2 55302  69.9994 216.0721 0003192 268.0293  92.0500 14.98331928 76026,6950.187,96.107,574.27,569.833,0.0
55302.0,STARLINK-5321,PAYLOAD,2024-05-31 14:24:14,14.98332019,0.00032,69.9994,215.9038,268.4555,91.6238,4.3407e-05,4.25e-06,0.0,0 STARLINK-5321,1 55302U 23010AK  24152.60017049  .00000425  00000-0  43407-4 0  9995,2 55302  69.9994 215.9038 0003200 268.4555  91.6238 14.98332019 76340,6950.187,96.107,574.276,569.828,0.0
55302.0,STARLINK-5321,PAYLOAD,2024-06-01 04:49:27,14.98326284,0.0003239,69.9992,214.388,271.6181,88.4607,-7.0153e-05,-9.3e-06,0.0,0 STARLINK-5321,1 55302U 23010AK  24153.20101753 -.00000930  00000-0 -70153-4 0  9999,2 55302  69.9992 214.3880 0003239 271.6181  88.4607 14.98326284 76126,6950.204,96.107,574.321,569.818,0.0
55302.0,STARLINK-5321,PAYLOAD,2024-06-01 14:26:16,14.98325032,0.0003203,69.9993,213.3782,272.0895,87.9898,-5.6516e-05,-7.67e-06,0.0,0 STARLINK-5321,1 55302U 23010AK  24153.60157897 -.00000767  00000-0 -56516-4 0  9998,2 55302  69.9993 213.3782 0003203 272.0895  87.9898 14.98325032 76491,6950.208,96.107,574.299,569.847,0.0
55302.0,STARLINK-5321,PAYLOAD,2024-06-02 04:51:28,14.98333453,0.0003256,69.999,211.8632,271.6139,88.4647,3.1089e-05,2.78e-06,0.0,0 STARLINK-5321,1 55302U 23010AK  24154.20241152  .00000278  00000-0  31089-4 0  9996,2 55302  69.9990 211.8632 0003256 271.6139  88.4647 14.98333453 76279,6950.182,96.107,574.31,569.784,0.0
55302.0,STARLINK-5321,PAYLOAD,2024-06-02 11:16:00,14.98333463,0.0003336,69.9989,211.1903,269.6106,90.4671,6.0079e-06,-2.1e-07,0.0,0 STARLINK-5321,1 55302U 23010AK  24154.46945146 -.00000021  00000-0  60079-5 0  9997,2 55302  69.9989 211.1903 0003336 269.6106  90.4671 14.98333463 76621,6950.182,96.107,574.366,569.729,0.0
55302.0,STARLINK-5321,PAYLOAD,2024-06-02 20:52:48,14.9833284,0.000336,69.9989,210.1804,269.7037,90.3737,2.3066e-06,-6.6e-07,0.0,0 STARLINK-5321,1 55302U 23010AK  24154.87001112 -.00000066  00000-0  23066-5 0  9992,2 55302  69.9989 210.1804 0003360 269.7037  90.3737 14.98332840 76687,6950.184,96.107,574.384,569.714,0.0
55302.0,STARLINK-5321,PAYLOAD,2024-06-03 04:53:29,14.98325056,0.0003145,69.9993,209.3391,265.6191,94.4608,6.2279e-05,6.5e-06,0.0,0 STARLINK-5321,1 55302U 23010AK  24155.20381489  .00000650  00000-0  62279-4 0  9994,2 55302  69.9993 209.3391 0003145 265.6191  94.4608 14.98325056 76425,6950.208,96.107,574.259,569.887,0.0
55302.0,STARLINK-5321,PAYLOAD,2024-06-03 11:18:01,14.98326119,0.0003276,69.9988,208.6654,267.5721,92.5062,5.802e-05,5.99e-06,0.0,0 STARLINK-5321,1 55302U 23010AK  24155.47085488  .00000599  00000-0  58020-4 0  9994,2 55302  69.9988 208.6654 0003276 267.5721  92.5062 14.98326119 76770,6950.205,96.107,574.347,569.793,0.0
55302.0,STARLINK-5321,PAYLOAD,2024-06-03 20:54:50,14.98327424,0.0003562,69.9983,207.6544,269.6517,90.4233,0.00011298,1.255e-05,0.0,0 STARLINK-5321,1 55302U 23010AK  24155.87141227  .00001255  00000-0  11298-3 0  9997,2 55302  69.9983 207.6544 0003562 269.6517  90.4233 14.98327424 76830,6950.201,96.107,574.542,569.59,0.0
55302.0,STARLINK-5321,PAYLOAD,2024-06-04 11:20:02,14.98335276,0.0003398,69.9988,206.1409,270.2308,89.8461,3.1248e-05,2.8e-06,0.0,0 STARLINK-5321,1 55302U 23010AK  24156.47224850  .00000280  00000-0  31248-4 0  9993,2 55302  69.9988 206.1409 0003398 270.2308  89.8461 14.98335276 76617,6950.177,96.107,574.403,569.68,0.0
55302.0,STARLINK-5321,PAYLOAD,2024-06-04 20:56:50,14.98333786,0.0003464,69.9985,205.1304,269.8393,90.2369,5.7226e-06,-2.5e-07,0.0,0 STARLINK-5321,1 55302U 23010AK  24156.87280865 -.00000025  00000-0  57226-5 0  9998,2 55302  69.9985 205.1304 0003464 269.8393  90.2369 14.98333786 76986,6950.181,96.107,574.454,569.639,0.0
55302.0,STARLINK-5321,PAYLOAD,2024-06-05 04:57:31,14.98328135,0.0003382,69.9984,204.2889,269.4954,90.5818,3.3256e-06,-5.3e-07,0.0,0 STARLINK-5321,1 55302U 23010AK  24157.20661215 -.00000053  00000-0  33256-5 0  9996,2 55302  69.9984 204.2889 0003382 269.4954  90.5818 14.98328135 76727,6950.199,96.107,574.414,569.713,0.0
55302.0,STARLINK-5321,PAYLOAD,2024-06-05 11:22:03,14.98329825,0.000337,69.9985,203.6148,267.5686,92.5087,-7.7126e-06,-1.85e-06,0.0,0 STARLINK-5321,1 55302U 23010AK  24157.47365118 -.00000185  00000-0 -77126-5 0  9999,2 55302  69.9985 203.6148 0003370 267.5686  92.5087 14.98329825 77073,6950.193,96.107,574.401,569.716,0.0
55302.0,STARLINK-5321,PAYLOAD,2024-06-05 20:58:51,14.98336918,0.0003454,69.9986,202.6048,269.499,90.5774,-0.00012568,-1.593e-05,0.0,0 STARLINK-5321,1 55302U 23010AK  24157.87420910 -.00001593  00000-0 -12568-3 0  9996,2 55302  69.9986 202.6048 0003454 269.4990  90.5774 14.98336918 77133,6950.171,96.107,574.437,569.636,0.0
55302.0,STARLINK-5321,PAYLOAD,2024-06-06 04:59:32,14.98331074,0.0003344,69.9985,201.7632,267.4982,92.5794,-1.291e-05,-2.47e-06,0.0,0 STARLINK-5321,1 55302U 23010AK  24158.20800987 -.00000247  00000-0 -12910-4 0  9997,2 55302  69.9985 201.7632 0003344 267.4982  92.5794 14.98331074 76870,6950.19,96.107,574.379,569.73,0.0
55302.0,STARLINK-5321,PAYLOAD,2024-06-06 11:24:04,14.98334006,0.0003373,69.9985,201.0902,267.8131,92.2642,-1.4854e-05,-2.7e-06,0.0,0 STARLINK-5321,1 55302U 23010AK  24158.47504767 -.00000270  00000-0 -14854-4 0  9998,2 55302  69.9985 201.0902 0003373 267.8131  92.2642 14.98334006 77222,6950.181,96.107,574.39,569.701,0.0
55302.0,STARLINK-5321,PAYLOAD,2024-06-07 09:49:57,14.983232,0.0003357,69.9984,198.7339,271.3359,88.7415,-9.8096e-05,-1.263e-05,0.0,0 STARLINK-5321,1 55302U 23010AK  24159.40968860 -.00001263  00000-0 -98096-4 0  9993,2 55302  69.9984 198.7339 0003357 271.3359  88.7415 14.98323200 77054,6950.214,96.107,574.412,569.746,0.0
55302.0,STARLINK-5321,PAYLOAD,2024-06-07 13:02:13,14.98322874,0.0003334,69.9984,198.3973,270.3481,89.7296,-0.00010035,-1.29e-05,0.0,0 STARLINK-5321,1 55302U 23010AK  24159.54320902 -.00001290  00000-0 -10035-3 0  9993,2 55302  69.9984 198.3973 0003334 270.3481  89.7296 14.98322874 77384,6950.215,96.107,574.397,569.763,0.0
55302.0,STARLINK-5321,PAYLOAD,2024-06-07 19:26:45,14.98323029,0.0003315,69.9985,197.724,269.1398,90.9381,-7.9629e-05,-1.043e-05,0.0,0 STARLINK-5321,1 55302U 23010AK  24159.81024898 -.00001043  00000-0 -79629-4 0  9999,2 55302  69.9985 197.7240 0003315 269.1398  90.9381 14.98323029 77424,6950.214,96.107,574.383,569.775,0.0
55302.0,STARLINK-5321,PAYLOAD,2024-06-08 05:03:33,14.98327346,0.0003285,69.9985,196.7141,270.0647,90.0135,-5.5892e-05,-7.6e-06,0.0,0 STARLINK-5321,1 55302U 23010AK  24160.21080647 -.00000760  00000-0 -55892-4 0  9990,2 55302  69.9985 196.7141 0003285 270.0647  90.0135 14.98327346 77173,6950.201,96.107,574.349,569.783,0.0
55302.0,STARLINK-5321,PAYLOAD,2024-06-08 11:28:05,14.98331306,0.0003167,69.9987,196.0405,270.1947,89.8849,-1.7324e-05,-3e-06,0.0,0 STARLINK-5321,1 55302U 23010AK  24160.47784288 -.00000300  00000-0 -17324-4 0  9998,2 55302  69.9987 196.0405 0003167 270.1947  89.8849 14.98331306 77522,6950.189,96.107,574.255,569.853,0.0
55302.0,STARLINK-5321,PAYLOAD,2024-06-08 19:28:46,14.98328058,0.0003139,69.9988,195.1983,270.8444,89.2355,-6.614e-05,-8.82e-06,0.0,0 STARLINK-5321,1 55302U 23010AK  24160.81164624 -.00000882  00000-0 -66140-4 0  9997,2 55302  69.9988 195.1983 0003139 270.8444  89.2355 14.98328058 77573,6950.199,96.107,574.246,569.882,0.0
55302.0,STARLINK-5321,PAYLOAD,2024-06-09 05:05:35,14.9831254,0.0002958,69.9988,194.1892,268.8862,91.1959,1.2563e-05,5.7e-07,0.0,0 STARLINK-5321,1 55302U 23010AK  24161.21221301  .00000057  00000-0  12563-4 0  9990,2 55302  69.9988 194.1892 0002958 268.8862  91.1959 14.98312540 77324,6950.247,96.108,574.168,570.056,0.0
55302.0,STARLINK-5321,PAYLOAD,2024-06-09 11:30:07,14.98311974,0.0002971,69.9989,193.516,268.5716,91.5102,-3.9655e-07,-9.8e-07,0.0,0 STARLINK-5321,1 55302U 23010AK  24161.47925659 -.00000098  00000-0 -39655-6 0  9995,2 55302  69.9989 193.5160 0002971 268.5716  91.5102 14.98311974 77678,6950.249,96.108,574.179,570.049,0.0
55302.0,STARLINK-5321,PAYLOAD,2024-06-10 05:07:36,14.98324633,0.0002976,69.9991,191.6655,266.3251,93.7568,1.6876e-05,1.08e-06,0.0,0 STARLINK-5321,1 55302U 23010AK  24162.21361312  .00000108  00000-0  16876-4 0  9996,2 55302  69.9991 191.6655 0002976 266.3251  93.7568 14.98324633 77478,6950.209,96.107,574.143,570.006,0.0
55302.0,STARLINK-5321,PAYLOAD,2024-06-10 11:32:08,14.98324485,0.0003045,69.999,190.9919,266.9019,93.1791,-2.1734e-05,-3.52e-06,0.0,0 STARLINK-5321,1 55302U 23010AK  24162.48065528 -.00000352  00000-0 -21734-4 0  9997,2 55302  69.9990 190.9919 0003045 266.9019  93.1791 14.98324485 77824,6950.21,96.107,574.191,569.959,0.0
